STARLINK-35730          
1 66273U 25247J   25321.83337963 -.02070098  00000+0 -33511-1 0  9990
2 66273  53.1589 355.2467 0001477  88.2431  76.9875 15.55412600  3930
STARLINK-35760          
1 66274U 25247K   25321.83337963 -.02095661  00000+0 -33947-1 0  9997
2 66274  53.1588 355.2426 0001382  81.5154  85.6150 15.55436390  3618
STARLINK-35752          
1 66275U 25247L   25321.83337963 -.02093718  00000+0 -33912-1 0  9991
2 66275  53.1591 355.2385 0001434  82.1024  86.9454 15.55435248  3610
STARLINK-35742          
1 66276U 25247M   25321.83337963 -.02088961  00000+0 -33828-1 0  9992
2 66276  53.1590 355.2346 0001438  80.8267  90.1382 15.55433171  3930
STARLINK-35708          
1 66277U 25247N   25321.83337963 -.02085130  00000+0 -33762-1 0  9995
2 66277  53.1592 355.2301 0001352  75.6527  97.2297 15.55431058  3935
STARLINK-35713          
1 66278U 25247P   25321.83337963 -.02090438  00000+0 -33857-1 0  9998
2 66278  53.1589 355.2219 0001355  74.6164 102.0998 15.55432645  3935
STARLINK-35724          
1 66279U 25247Q   25321.83337963 -.02091563  00000+0 -33876-1 0  9990
2 66279  53.1590 355.2175 0001309  76.7966 101.8363 15.55433772  3565
STARLINK-35726          
1 66280U 25247R   25321.83337963 -.02089277  00000+0 -33835-1 0  9996
2 66280  53.1591 355.2260 0001493  77.5185  97.2810 15.55431723  3614
STARLINK-35727          
1 66281U 25247S   25321.83337963 -.02088610  00000+0 -33822-1 0  9993
2 66281  53.1590 355.2140 0001464  82.0086  98.5412 15.55432573  3616
STARLINK-35776          
1 66282U 25247T   25321.83337963 -.02088029  00000+0 -33812-1 0  9997
2 66282  53.1589 355.2099 0001400  80.9365 101.5298 15.55432749  3617
STARLINK-35774          
1 66283U 25247U   25321.83337963 -.02084783  00000+0 -33756-1 0  9998
2 66283  53.1590 355.2062 0001403  78.8769 105.5071 15.55430250  3615
STARLINK-35830          
1 66284U 25247V   25321.83337963 -.02093811  00000+0 -33914-1 0  9997
2 66284  53.1588 355.2020 0001407  82.5848 103.7144 15.55435546  3615
