CCSDS_OMM_VERS = 2.0
CREATION_DATE  = 
ORIGINATOR     = 

OBJECT_NAME    = STARLINK-35730
OBJECT_ID      = 2025-247J
CENTER_NAME    = EARTH
REF_FRAME      = TEME
TIME_SYSTEM    = UTC
MEAN_ELEMENT_THEORY = SGP/SGP4

EPOCH          = 2025-11-17T20:00:04.000032
MEAN_MOTION    = 15.55412600
ECCENTRICITY   = .0001477
INCLINATION    = 53.1589
RA_OF_ASC_NODE = 355.2467
ARG_OF_PERICENTER = 88.2431
MEAN_ANOMALY   = 76.9875

EPHEMERIS_TYPE = 0
CLASSIFICATION_TYPE = U
NORAD_CAT_ID   = 66273
ELEMENT_SET_NO = 999
REV_AT_EPOCH   = 393
BSTAR          = -.33511E-1
MEAN_MOTION_DOT = -.2070098E-1
MEAN_MOTION_DDOT = 0

CCSDS_OMM_VERS = 2.0
CREATION_DATE  = 
ORIGINATOR     = 

OBJECT_NAME    = STARLINK-35760
OBJECT_ID      = 2025-247K
CENTER_NAME    = EARTH
REF_FRAME      = TEME
TIME_SYSTEM    = UTC
MEAN_ELEMENT_THEORY = SGP/SGP4

EPOCH          = 2025-11-17T20:00:04.000032
MEAN_MOTION    = 15.55436390
ECCENTRICITY   = .0001382
INCLINATION    = 53.1588
RA_OF_ASC_NODE = 355.2426
ARG_OF_PERICENTER = 81.5154
MEAN_ANOMALY   = 85.6150

EPHEMERIS_TYPE = 0
CLASSIFICATION_TYPE = U
NORAD_CAT_ID   = 66274
ELEMENT_SET_NO = 999
REV_AT_EPOCH   = 361
BSTAR          = -.33947E-1
MEAN_MOTION_DOT = -.2095661E-1
MEAN_MOTION_DDOT = 0

CCSDS_OMM_VERS = 2.0
CREATION_DATE  = 
ORIGINATOR     = 

OBJECT_NAME    = STARLINK-35752
OBJECT_ID      = 2025-247L
CENTER_NAME    = EARTH
REF_FRAME      = TEME
TIME_SYSTEM    = UTC
MEAN_ELEMENT_THEORY = SGP/SGP4

EPOCH          = 2025-11-17T20:00:04.000032
MEAN_MOTION    = 15.55435248
ECCENTRICITY   = .0001434
INCLINATION    = 53.1591
RA_OF_ASC_NODE = 355.2385
ARG_OF_PERICENTER = 82.1024
MEAN_ANOMALY   = 86.9454

EPHEMERIS_TYPE = 0
CLASSIFICATION_TYPE = U
NORAD_CAT_ID   = 66275
ELEMENT_SET_NO = 999
REV_AT_EPOCH   = 361
BSTAR          = -.33912E-1
MEAN_MOTION_DOT = -.2093718E-1
MEAN_MOTION_DDOT = 0

CCSDS_OMM_VERS = 2.0
CREATION_DATE  = 
ORIGINATOR     = 

OBJECT_NAME    = STARLINK-35742
OBJECT_ID      = 2025-247M
CENTER_NAME    = EARTH
REF_FRAME      = TEME
TIME_SYSTEM    = UTC
MEAN_ELEMENT_THEORY = SGP/SGP4

EPOCH          = 2025-11-17T20:00:04.000032
MEAN_MOTION    = 15.55433171
ECCENTRICITY   = .0001438
INCLINATION    = 53.1590
RA_OF_ASC_NODE = 355.2346
ARG_OF_PERICENTER = 80.8267
MEAN_ANOMALY   = 90.1382

EPHEMERIS_TYPE = 0
CLASSIFICATION_TYPE = U
NORAD_CAT_ID   = 66276
ELEMENT_SET_NO = 999
REV_AT_EPOCH   = 393
BSTAR          = -.33828E-1
MEAN_MOTION_DOT = -.2088961E-1
MEAN_MOTION_DDOT = 0

CCSDS_OMM_VERS = 2.0
CREATION_DATE  = 
ORIGINATOR     = 

OBJECT_NAME    = STARLINK-35708
OBJECT_ID      = 2025-247N
CENTER_NAME    = EARTH
REF_FRAME      = TEME
TIME_SYSTEM    = UTC
MEAN_ELEMENT_THEORY = SGP/SGP4

EPOCH          = 2025-11-17T20:00:04.000032
MEAN_MOTION    = 15.55431058
ECCENTRICITY   = .0001352
INCLINATION    = 53.1592
RA_OF_ASC_NODE = 355.2301
ARG_OF_PERICENTER = 75.6527
MEAN_ANOMALY   = 97.2297

EPHEMERIS_TYPE = 0
CLASSIFICATION_TYPE = U
NORAD_CAT_ID   = 66277
ELEMENT_SET_NO = 999
REV_AT_EPOCH   = 393
BSTAR          = -.33762E-1
MEAN_MOTION_DOT = -.208513E-1
MEAN_MOTION_DDOT = 0

CCSDS_OMM_VERS = 2.0
CREATION_DATE  = 
ORIGINATOR     = 

OBJECT_NAME    = STARLINK-35713
OBJECT_ID      = 2025-247P
CENTER_NAME    = EARTH
REF_FRAME      = TEME
TIME_SYSTEM    = UTC
MEAN_ELEMENT_THEORY = SGP/SGP4

EPOCH          = 2025-11-17T20:00:04.000032
MEAN_MOTION    = 15.55432645
ECCENTRICITY   = .0001355
INCLINATION    = 53.1589
RA_OF_ASC_NODE = 355.2219
ARG_OF_PERICENTER = 74.6164
MEAN_ANOMALY   = 102.0998

EPHEMERIS_TYPE = 0
CLASSIFICATION_TYPE = U
NORAD_CAT_ID   = 66278
ELEMENT_SET_NO = 999
REV_AT_EPOCH   = 393
BSTAR          = -.33857E-1
MEAN_MOTION_DOT = -.2090438E-1
MEAN_MOTION_DDOT = 0

CCSDS_OMM_VERS = 2.0
CREATION_DATE  = 
ORIGINATOR     = 

OBJECT_NAME    = STARLINK-35724
OBJECT_ID      = 2025-247Q
CENTER_NAME    = EARTH
REF_FRAME      = TEME
TIME_SYSTEM    = UTC
MEAN_ELEMENT_THEORY = SGP/SGP4

EPOCH          = 2025-11-17T20:00:04.000032
MEAN_MOTION    = 15.55433772
ECCENTRICITY   = .0001309
INCLINATION    = 53.1590
RA_OF_ASC_NODE = 355.2175
ARG_OF_PERICENTER = 76.7966
MEAN_ANOMALY   = 101.8363

EPHEMERIS_TYPE = 0
CLASSIFICATION_TYPE = U
NORAD_CAT_ID   = 66279
ELEMENT_SET_NO = 999
REV_AT_EPOCH   = 356
BSTAR          = -.33876E-1
MEAN_MOTION_DOT = -.2091563E-1
MEAN_MOTION_DDOT = 0

CCSDS_OMM_VERS = 2.0
CREATION_DATE  = 
ORIGINATOR     = 

OBJECT_NAME    = STARLINK-35726
OBJECT_ID      = 2025-247R
CENTER_NAME    = EARTH
REF_FRAME      = TEME
TIME_SYSTEM    = UTC
MEAN_ELEMENT_THEORY = SGP/SGP4

EPOCH          = 2025-11-17T20:00:04.000032
MEAN_MOTION    = 15.55431723
ECCENTRICITY   = .0001493
INCLINATION    = 53.1591
RA_OF_ASC_NODE = 355.2260
ARG_OF_PERICENTER = 77.5185
MEAN_ANOMALY   = 97.2810

EPHEMERIS_TYPE = 0
CLASSIFICATION_TYPE = U
NORAD_CAT_ID   = 66280
ELEMENT_SET_NO = 999
REV_AT_EPOCH   = 361
BSTAR          = -.33835E-1
MEAN_MOTION_DOT = -.2089277E-1
MEAN_MOTION_DDOT = 0

CCSDS_OMM_VERS = 2.0
CREATION_DATE  = 
ORIGINATOR     = 

OBJECT_NAME    = STARLINK-35727
OBJECT_ID      = 2025-247S
CENTER_NAME    = EARTH
REF_FRAME      = TEME
TIME_SYSTEM    = UTC
MEAN_ELEMENT_THEORY = SGP/SGP4

EPOCH          = 2025-11-17T20:00:04.000032
MEAN_MOTION    = 15.55432573
ECCENTRICITY   = .0001464
INCLINATION    = 53.1590
RA_OF_ASC_NODE = 355.2140
ARG_OF_PERICENTER = 82.0086
MEAN_ANOMALY   = 98.5412

EPHEMERIS_TYPE = 0
CLASSIFICATION_TYPE = U
NORAD_CAT_ID   = 66281
ELEMENT_SET_NO = 999
REV_AT_EPOCH   = 361
BSTAR          = -.33822E-1
MEAN_MOTION_DOT = -.208861E-1
MEAN_MOTION_DDOT = 0

CCSDS_OMM_VERS = 2.0
CREATION_DATE  = 
ORIGINATOR     = 

OBJECT_NAME    = STARLINK-35776
OBJECT_ID      = 2025-247T
CENTER_NAME    = EARTH
REF_FRAME      = TEME
TIME_SYSTEM    = UTC
MEAN_ELEMENT_THEORY = SGP/SGP4

EPOCH          = 2025-11-17T20:00:04.000032
MEAN_MOTION    = 15.55432749
ECCENTRICITY   = .00014
INCLINATION    = 53.1589
RA_OF_ASC_NODE = 355.2099
ARG_OF_PERICENTER = 80.9365
MEAN_ANOMALY   = 101.5298

EPHEMERIS_TYPE = 0
CLASSIFICATION_TYPE = U
NORAD_CAT_ID   = 66282
ELEMENT_SET_NO = 999
REV_AT_EPOCH   = 361
BSTAR          = -.33812E-1
MEAN_MOTION_DOT = -.2088029E-1
MEAN_MOTION_DDOT = 0

CCSDS_OMM_VERS = 2.0
CREATION_DATE  = 
ORIGINATOR     = 

OBJECT_NAME    = STARLINK-35774
OBJECT_ID      = 2025-247U
CENTER_NAME    = EARTH
REF_FRAME      = TEME
TIME_SYSTEM    = UTC
MEAN_ELEMENT_THEORY = SGP/SGP4

EPOCH          = 2025-11-17T20:00:04.000032
MEAN_MOTION    = 15.55430250
ECCENTRICITY   = .0001403
INCLINATION    = 53.1590
RA_OF_ASC_NODE = 355.2062
ARG_OF_PERICENTER = 78.8769
MEAN_ANOMALY   = 105.5071

EPHEMERIS_TYPE = 0
CLASSIFICATION_TYPE = U
NORAD_CAT_ID   = 66283
ELEMENT_SET_NO = 999
REV_AT_EPOCH   = 361
BSTAR          = -.33756E-1
MEAN_MOTION_DOT = -.2084783E-1
MEAN_MOTION_DDOT = 0

CCSDS_OMM_VERS = 2.0
CREATION_DATE  = 
ORIGINATOR     = 

OBJECT_NAME    = STARLINK-35830
OBJECT_ID      = 2025-247V
CENTER_NAME    = EARTH
REF_FRAME      = TEME
TIME_SYSTEM    = UTC
MEAN_ELEMENT_THEORY = SGP/SGP4

EPOCH          = 2025-11-17T20:00:04.000032
MEAN_MOTION    = 15.55435546
ECCENTRICITY   = .0001407
INCLINATION    = 53.1588
RA_OF_ASC_NODE = 355.2020
ARG_OF_PERICENTER = 82.5848
MEAN_ANOMALY   = 103.7144

EPHEMERIS_TYPE = 0
CLASSIFICATION_TYPE = U
NORAD_CAT_ID   = 66284
ELEMENT_SET_NO = 999
REV_AT_EPOCH   = 361
BSTAR          = -.33914E-1
MEAN_MOTION_DOT = -.2093811E-1
MEAN_MOTION_DDOT = 0

